*******************************************************************************
Ephemeris / WWW_USER Tue Mar 27 22:44:13 2018 Pasadena, USA      / Horizons    
*******************************************************************************
Target body name: Moon (301)                      {source: DE431mx}
Center body name: Earth-Moon Barycenter (3)       {source: DE431mx}
Center-site name: BODY CENTER
*******************************************************************************
Start time      : A.D. 2000-Jan-01 00:00:00.0000 TDB
Stop  time      : A.D. 2005-Jan-01 00:00:00.0000 TDB
Step-size       : 7200 minutes
*******************************************************************************
Center geodetic : 0.00000000,0.00000000,0.0000000 {E-lon(deg),Lat(deg),Alt(km)}
Center cylindric: 0.00000000,0.00000000,0.0000000 {E-lon(deg),Dxy(km),Dz(km)}
Center radii    : (undefined)                                                  
Output units    : AU-D                                                         
Output type     : GEOMETRIC cartesian states
Output format   : 2 (position and velocity)
Reference frame : ICRF/J2000.0                                                 
Coordinate systm: Ecliptic and Mean Equinox of Reference Epoch                 
*******************************************************************************
JDTDB
   X     Y     Z
   VX    VY    VZ
*******************************************************************************
$$SOE
2453224.500000000 = A.D. 2004-Aug-07 00:00:00.0000 TDB 
   2.148207418316428E-03  1.469791805846592E-03 -5.563169391499559E-06
  -2.912384913907635E-04  4.834288708327371E-04  4.967710394902570E-05
2453229.500000000 = A.D. 2004-Aug-12 00:00:00.0000 TDB 
  -1.958051419307001E-04  2.660333235285139E-03  2.004173666182940E-04
  -5.506211476064233E-04 -4.648974660927393E-05  2.482187848937993E-05
2453234.500000000 = A.D. 2004-Aug-17 00:00:00.0000 TDB 
  -2.353502450169269E-03  1.083738175969077E-03  1.959873305972490E-04
  -2.211048117235906E-04 -5.275916038639910E-04 -2.717633774158516E-05
2453239.500000000 = A.D. 2004-Aug-22 00:00:00.0000 TDB 
  -1.879381081314673E-03 -1.626225188201281E-03 -2.562901577865165E-05
   4.040618847099807E-04 -4.325677318666186E-04 -5.197687652109943E-05
2453244.500000000 = A.D. 2004-Aug-27 00:00:00.0000 TDB 
   8.962365867159639E-04 -2.228653943689409E-03 -2.084384936029588E-04
   5.685651121043531E-04  2.316673625725690E-04 -1.118311381279849E-05
2453249.500000000 = A.D. 2004-Sep-01 00:00:00.0000 TDB 
   2.493385894372206E-03  1.510079498111754E-04 -1.110944695410196E-04
  -2.156243948730436E-07  5.925221806020158E-04  4.417308506671136E-05
2453254.500000000 = A.D. 2004-Sep-06 00:00:00.0000 TDB 
   1.046246298966906E-03  2.433457047052716E-03  1.312327357149942E-04
  -5.023586300081269E-04  2.328785594300365E-04  4.233219713094809E-05
2453259.500000000 = A.D. 2004-Sep-11 00:00:00.0000 TDB 
  -1.562884123675482E-03  2.114294000833371E-03  2.358324213778847E-04
  -4.394548930980392E-04 -3.490283102045675E-04 -4.755431731776237E-06
2453264.500000000 = A.D. 2004-Sep-16 00:00:00.0000 TDB 
  -2.474099993328293E-03 -4.595174015288999E-04  8.522802811928150E-05
   1.277180161313649E-04 -5.745116215139324E-04 -5.003608637630479E-05
2453269.500000000 = A.D. 2004-Sep-21 00:00:00.0000 TDB 
  -4.428283144061087E-04 -2.400669049772241E-03 -1.626064484553661E-04
   5.935144867452015E-04 -1.006150751265412E-04 -3.678813390203216E-05
2453274.500000000 = A.D. 2004-Sep-26 00:00:00.0000 TDB 
   2.136838407607863E-03 -1.206146627459773E-03 -1.969647343925168E-04
   3.101463630287692E-04  5.162194962373769E-04  2.461923366802748E-05
2453279.500000000 = A.D. 2004-Oct-01 00:00:00.0000 TDB 
   2.044185543371270E-03  1.579886191838037E-03  2.296107848168816E-05
  -3.272055193525172E-04  4.697751941121900E-04  5.244310039711773E-05
2453284.500000000 = A.D. 2004-Oct-06 00:00:00.0000 TDB 
  -3.876655939107976E-04  2.632090613265787E-03  2.238946577472223E-04
  -5.446255677301599E-04 -8.260673258537337E-05  2.030741042373008E-05
2453289.500000000 = A.D. 2004-Oct-11 00:00:00.0000 TDB 
  -2.403066536812578E-03  9.004120236942143E-04  1.878873665154660E-04
  -1.739145475778159E-04 -5.485419719605531E-04 -3.425652751694144E-05
2453294.500000000 = A.D. 2004-Oct-16 00:00:00.0000 TDB 
  -1.650105620565701E-03 -1.798082725290859E-03 -5.985828200428640E-05
   4.560015437315750E-04 -3.987894494642973E-04 -5.357521967913200E-05
2453299.500000000 = A.D. 2004-Oct-21 00:00:00.0000 TDB 
   1.181474319023921E-03 -2.134266926584279E-03 -2.251959391027458E-04
   5.326333101341648E-04  2.808203189218115E-04 -4.171761259412964E-06
2453304.500000000 = A.D. 2004-Oct-26 00:00:00.0000 TDB 
   2.514912838825259E-03  3.276687305404116E-04 -9.785435875891953E-05
  -5.180805619437800E-05  5.813115076244701E-04  4.808041667438277E-05
2453309.500000000 = A.D. 2004-Oct-31 00:00:00.0000 TDB 
   8.828857147606461E-04  2.492099668141255E-03  1.517466615863372E-04
  -5.215526385402810E-04  2.006476815076538E-04  4.128206598558105E-05
2453314.500000000 = A.D. 2004-Nov-05 00:00:00.0000 TDB 
  -1.703217449114197E-03  2.020596975787382E-03  2.414823068003865E-04
  -4.124048912664931E-04 -3.708958658474560E-04 -8.857749762181253E-06
2453319.500000000 = A.D. 2004-Nov-10 00:00:00.0000 TDB 
  -2.418832496044392E-03 -5.892643622215115E-04  7.236085534073283E-05
   1.748718866159844E-04 -5.670971865739223E-04 -5.284430578026498E-05
2453324.500000000 = A.D. 2004-Nov-15 00:00:00.0000 TDB 
  -1.715382809756632E-04 -2.380625391312111E-03 -1.768683471685044E-04
   6.164311074717724E-04 -4.604619455013798E-05 -3.352882241465959E-05
2453329.500000000 = A.D. 2004-Nov-20 00:00:00.0000 TDB 
   2.297549102487433E-03 -9.489842280196125E-04 -1.850002902614623E-04
   2.526180891632244E-04  5.345344775533830E-04  2.940135756178870E-05
2453334.500000000 = A.D. 2004-Nov-25 00:00:00.0000 TDB 
   1.933872313644731E-03  1.758797809414871E-03  4.284379752004403E-05
  -3.666690822593124E-04  4.319088336759107E-04  5.107780970913937E-05
2453339.500000000 = A.D. 2004-Nov-30 00:00:00.0000 TDB 
  -5.880851426275152E-04  2.604655345561907E-03  2.284822946013543E-04
  -5.397360240414080E-04 -1.203730694866888E-04  1.621842529317915E-05
2453344.500000000 = A.D. 2004-Dec-05 00:00:00.0000 TDB 
  -2.484345295092346E-03  7.739535074749362E-04  1.760833671905397E-04
  -1.387869398479542E-04 -5.464551546803801E-04 -3.578246789746155E-05
2453349.500000000 = A.D. 2004-Dec-10 00:00:00.0000 TDB 
  -1.564162367158251E-03 -1.837945884431884E-03 -6.847256354512710E-05
   4.875354750981453E-04 -3.701726768660072E-04 -5.113583243765524E-05
2453354.500000000 = A.D. 2004-Dec-15 00:00:00.0000 TDB 
   1.358735752144082E-03 -1.954887449912118E-03 -2.119079485942426E-04
   5.216267816227372E-04  3.335732703254502E-04  1.892204591805993E-06
2453359.500000000 = A.D. 2004-Dec-20 00:00:00.0000 TDB 
   2.478787598191678E-03  6.245113667008875E-04 -6.404014183645486E-05
  -1.074668331165659E-04  5.649259494939528E-04  4.838287822969018E-05
2453364.500000000 = A.D. 2004-Dec-25 00:00:00.0000 TDB 
   6.582233353355161E-04  2.579862712936174E-03  1.677567524160662E-04
  -5.366595684975950E-04  1.465524388322573E-04  3.501528313371393E-05
2453369.500000000 = A.D. 2004-Dec-30 00:00:00.0000 TDB 
  -1.888855318355211E-03  1.877323074195487E-03  2.249968914298340E-04
  -3.838378888884415E-04 -4.001311794840464E-04 -1.428582854643292E-05
